{"type": "FeatureCollection", "features": [ {"type": "Feature", "properties": {"norad_id": 30891, "name": "FENGYUN 1C DEB", "group": "fengyun-1c-debris", "lat": -63.21958656707142, "lon": -161.79553598238047, "alt_km": 861.4599112892365, "timestamp": "2025-12-14T11:29:50.339804+00:00", "meta": {"OBJECT_NAME": "FENGYUN 1C DEB", "OBJECT_ID": "1999-025AYD", "EPOCH": "2025-12-13T02:01:38.975232", "MEAN_MOTION": 14.0586675, "ECCENTRICITY": 0.0055412, "INCLINATION": 98.7851, "RA_OF_ASC_NODE": 34.6942, "ARG_OF_PERICENTER": 186.7665, "MEAN_ANOMALY": 203.0078, "EPHEMERIS_TYPE": 0, "CLASSIFICATION_TYPE": "U", "NORAD_CAT_ID": 30891, "ELEMENT_SET_NO": 999, "REV_AT_EPOCH": 95987, "BSTAR": 0.0012145064, "MEAN_MOTION_DOT": 1.971e-05, "MEAN_MOTION_DDOT": 0}, "tle": {"line1": "1 30891U 99025AYD 25347.08447888  .00001971  00000+0  12145-2 0  9996", "line2": "2 30891  98.7851  34.6942 0055412 186.7665 203.0078 14.05866750959875"}}, "geometry": {"type": "Point", "coordinates": [-161.79553598238047, -63.21958656707142]}}, {"type": "Feature", "properties": {"norad_id": 30892, "name": "FENGYUN 1C DEB", "group": "fengyun-1c-debris", "lat": -55.981384610070776, "lon": 97.19329571126788, "alt_km": 819.4446088579552, "timestamp": "2025-12-14T11:29:50.339814+00:00", "meta": {"OBJECT_NAME": "FENGYUN 1C DEB", "OBJECT_ID": "1999-025AYE", "EPOCH": "2025-12-13T14:04:34.549536", "MEAN_MOTION": 14.18924802, "ECCENTRICITY": 0.00379168, "INCLINATION": 99.663, "RA_OF_ASC_NODE": 290.842, "ARG_OF_PERICENTER": 186.6804, "MEAN_ANOMALY": 173.3868, "EPHEMERIS_TYPE": 0, "CLASSIFICATION_TYPE": "U", "NORAD_CAT_ID": 30892, "ELEMENT_SET_NO": 999, "REV_AT_EPOCH": 64315, "BSTAR": 0.00057005886, "MEAN_MOTION_DOT": 1.145e-05, "MEAN_MOTION_DDOT": 0}, "tle": {"line1": "1 30892U 99025AYE 25347.58651099  .00001145  00000+0  57006-3 0  9992", "line2": "2 30892  99.6630 290.8420 0037916 186.6804 173.3868 14.18924802643155"}}, "geometry": {"type": "Point", "coordinates": [97.19329571126788, -55.981384610070776]}}, {"type": "Feature", "properties": {"norad_id": 30893, "name": "FENGYUN 1C DEB", "group": "fengyun-1c-debris", "lat": 15.539271675219961, "lon": -162.21658791370797, "alt_km": 854.6157908580453, "timestamp": "2025-12-14T11:29:50.339825+00:00", "meta": {"OBJECT_NAME": "FENGYUN 1C DEB", "OBJECT_ID": "1999-025AYF", "EPOCH": "2025-12-06T08:24:45.258048", "MEAN_MOTION": 13.94039277, "ECCENTRICITY": 0.03095885, "INCLINATION": 98.258, "RA_OF_ASC_NODE": 8.1876, "ARG_OF_PERICENTER": 110.75, "MEAN_ANOMALY": 318.9405, "EPHEMERIS_TYPE": 0, "CLASSIFICATION_TYPE": "U", "NORAD_CAT_ID": 30893, "ELEMENT_SET_NO": 999, "REV_AT_EPOCH": 94796, "BSTAR": 0.00098360292, "MEAN_MOTION_DOT": 1.902e-05, "MEAN_MOTION_DDOT": 0}, "tle": {"line1": "1 30893U 99025AYF 25340.35052382  .00001902  00000+0  98360-3 0  9990", "line2": "2 30893  98.2580   8.1876 0309588 110.7500 318.9405 13.94039277947964"}}, "geometry": {"type": "Point", "coordinates": [-162.21658791370797, 15.539271675219961]}}, {"type": "Feature", "properties": {"norad_id": 30895, "name": "FENGYUN 1C DEB", "group": "fengyun-1c-debris", "lat": -69.29145718411193, "lon": 80.92673961256489, "alt_km": 947.6231580238782, "timestamp": "2025-12-14T11:29:50.339835+00:00", "meta": {"OBJECT_NAME": "FENGYUN 1C DEB", "OBJECT_ID": "1999-025AYH", "EPOCH": "2025-12-13T16:24:03.931776", "MEAN_MOTION": 14.31551375, "ECCENTRICITY": 0.02181885, "INCLINATION": 98.7192, "RA_OF_ASC_NODE": 56.1768, "ARG_OF_PERICENTER": 121.3101, "MEAN_ANOMALY": 28.8904, "EPHEMERIS_TYPE": 0, "CLASSIFICATION_TYPE": "U", "NORAD_CAT_ID": 30895, "ELEMENT_SET_NO": 999, "REV_AT_EPOCH": 97806, "BSTAR": 0.00051778434, "MEAN_MOTION_DOT": 1.74e-05, "MEAN_MOTION_DDOT": 0}, "tle": {"line1": "1 30895U 99025AYH 25347.68337884  .00001740  00000+0  51778-3 0  9990", "line2": "2 30895  98.7192  56.1768 0218188 121.3101  28.8904 14.31551375978069"}}, "geometry": {"type": "Point", "coordinates": [80.92673961256489, -69.29145718411193]}}, {"type": "Feature", "properties": {"norad_id": 30898, "name": "FENGYUN 1C DEB", "group": "fengyun-1c-debris", "lat": -68.61578539761247, "lon": -75.77546833876183, "alt_km": 533.9784502888206, "timestamp": "2025-12-14T11:29:50.339845+00:00", "meta": {"OBJECT_NAME": "FENGYUN 1C DEB", "OBJECT_ID": "1999-025AYL", "EPOCH": "2025-12-13T12:08:48.342912", "MEAN_MOTION": 15.22262949, "ECCENTRICITY": 0.00414739, "INCLINATION": 99.0239, "RA_OF_ASC_NODE": 259.1135, "ARG_OF_PERICENTER": 108.6808, "MEAN_ANOMALY": 251.8932, "EPHEMERIS_TYPE": 0, "CLASSIFICATION_TYPE": "U", "NORAD_CAT_ID": 30898, "ELEMENT_SET_NO": 999, "REV_AT_EPOCH": 66383, "BSTAR": 0.0047652585, "MEAN_MOTION_DOT": 0.00113775, "MEAN_MOTION_DDOT": 0}, "tle": {"line1": "1 30898U 99025AYL 25347.50611508  .00113775  00000+0  47653-2 0  9990", "line2": "2 30898  99.0239 259.1135 0041473 108.6808 251.8932 15.22262949663836"}}, "geometry": {"type": "Point", "coordinates": [-75.77546833876183, -68.61578539761247]}}, {"type": "Feature", "properties": {"norad_id": 30903, "name": "FENGYUN 1C DEB", "group": "fengyun-1c-debris", "lat": -80.56669875885426, "lon": -42.19974673404177, "alt_km": 979.8454671795962, "timestamp": "2025-12-14T11:29:50.339855+00:00", "meta": {"OBJECT_NAME": "FENGYUN 1C DEB", "OBJECT_ID": "1999-025AYR", "EPOCH": "2025-12-07T09:49:46.651872", "MEAN_MOTION": 13.9759553, "ECCENTRICITY": 0.00968558, "INCLINATION": 99.3712, "RA_OF_ASC_NODE": 226.9134, "ARG_OF_PERICENTER": 107.4967, "MEAN_ANOMALY": 253.6808, "EPHEMERIS_TYPE": 0, "CLASSIFICATION_TYPE": "U", "NORAD_CAT_ID": 30903, "ELEMENT_SET_NO": 999, "REV_AT_EPOCH": 68630, "BSTAR": 0.0004593066, "MEAN_MOTION_DOT": 6.28e-06, "MEAN_MOTION_DDOT": 0}, "tle": {"line1": "1 30903U 99025AYR 25341.40956773  .00000628  00000+0  45931-3 0  9996", "line2": "2 30903  99.3712 226.9134 0096855 107.4967 253.6808 13.97595530686304"}}, "geometry": {"type": "Point", "coordinates": [-42.19974673404177, -80.56669875885426]}}, {"type": "Feature", "properties": {"norad_id": 30905, "name": "FENGYUN 1C DEB", "group": "fengyun-1c-debris", "lat": 29.351808207291374, "lon": 58.828339100131586, "alt_km": 802.5557265110874, "timestamp": "2025-12-14T11:29:50.339865+00:00", "meta": {"OBJECT_NAME": "FENGYUN 1C DEB", "OBJECT_ID": "1999-025AYT", "EPOCH": "2025-12-13T11:38:49.964064", "MEAN_MOTION": 14.17849162, "ECCENTRICITY": 0.00567929, "INCLINATION": 98.8892, "RA_OF_ASC_NODE": 62.8831, "ARG_OF_PERICENTER": 78.6973, "MEAN_ANOMALY": 282.0576, "EPHEMERIS_TYPE": 0, "CLASSIFICATION_TYPE": "U", "NORAD_CAT_ID": 30905, "ELEMENT_SET_NO": 999, "REV_AT_EPOCH": 96133, "BSTAR": 0.0018412932, "MEAN_MOTION_DOT": 3.777e-05, "MEAN_MOTION_DDOT": 0}, "tle": {"line1": "1 30905U 99025AYT 25347.48530051  .00003777  00000+0  18413-2 0  9991", "line2": "2 30905  98.8892  62.8831 0056792  78.6973 282.0576 14.17849162961335"}}, "geometry": {"type": "Point", "coordinates": [58.828339100131586, 29.351808207291374]}}, {"type": "Feature", "properties": {"norad_id": 30907, "name": "FENGYUN 1C DEB", "group": "fengyun-1c-debris", "lat": -31.87237097503677, "lon": 15.006275642380816, "alt_km": 887.4377765618483, "timestamp": "2025-12-14T11:29:50.339875+00:00", "meta": {"OBJECT_NAME": "FENGYUN 1C DEB", "OBJECT_ID": "1999-025AYV", "EPOCH": "2025-12-09T21:21:03.076416", "MEAN_MOTION": 14.15071853, "ECCENTRICITY": 0.0056417, "INCLINATION": 99.9526, "RA_OF_ASC_NODE": 3.625, "ARG_OF_PERICENTER": 146.1044, "MEAN_ANOMALY": 214.3752, "EPHEMERIS_TYPE": 0, "CLASSIFICATION_TYPE": "U", "NORAD_CAT_ID": 30907, "ELEMENT_SET_NO": 999, "REV_AT_EPOCH": 1509, "BSTAR": 0.0012837834, "MEAN_MOTION_DOT": 2.474e-05, "MEAN_MOTION_DDOT": 0}, "tle": {"line1": "1 30907U 99025AYV 25343.88961894  .00002474  00000+0  12838-2 0  9994", "line2": "2 30907  99.9526   3.6250 0056417 146.1044 214.3752 14.15071853 15094"}}, "geometry": {"type": "Point", "coordinates": [15.006275642380816, -31.87237097503677]}}, {"type": "Feature", "properties": {"norad_id": 30912, "name": "FENGYUN 1C DEB", "group": "fengyun-1c-debris", "lat": 32.94808082081993, "lon": -175.89848450704426, "alt_km": 576.0575002404557, "timestamp": "2025-12-14T11:29:50.339885+00:00", "meta": {"OBJECT_NAME": "FENGYUN 1C DEB", "OBJECT_ID": "1999-025AZA", "EPOCH": "2025-12-13T12:46:32.762496", "MEAN_MOTION": 14.8941261, "ECCENTRICITY": 0.00592555, "INCLINATION": 98.9968, "RA_OF_ASC_NODE": 188.9199, "ARG_OF_PERICENTER": 95.2817, "MEAN_ANOMALY": 265.5161, "EPHEMERIS_TYPE": 0, "CLASSIFICATION_TYPE": "U", "NORAD_CAT_ID": 30912, "ELEMENT_SET_NO": 999, "REV_AT_EPOCH": 99416, "BSTAR": 0.0014920407, "MEAN_MOTION_DOT": 0.00014608, "MEAN_MOTION_DDOT": 0}, "tle": {"line1": "1 30912U 99025AZA 25347.53232364  .00014608  00000+0  14920-2 0  9995", "line2": "2 30912  98.9968 188.9199 0059255  95.2817 265.5161 14.89412610994160"}}, "geometry": {"type": "Point", "coordinates": [-175.89848450704426, 32.94808082081993]}}, {"type": "Feature", "properties": {"norad_id": 30913, "name": "FENGYUN 1C DEB", "group": "fengyun-1c-debris", "lat": 32.1889167282919, "lon": 9.801336003291409, "alt_km": 903.0050893987236, "timestamp": "2025-12-14T11:29:50.339895+00:00", "meta": {"OBJECT_NAME": "FENGYUN 1C DEB", "OBJECT_ID": "1999-025AZB", "EPOCH": "2025-12-12T01:13:41.977056", "MEAN_MOTION": 14.04948678, "ECCENTRICITY": 0.00484924, "INCLINATION": 98.7464, "RA_OF_ASC_NODE": 13.0219, "ARG_OF_PERICENTER": 183.1376, "MEAN_ANOMALY": 176.9495, "EPHEMERIS_TYPE": 0, "CLASSIFICATION_TYPE": "U", "NORAD_CAT_ID": 30913, "ELEMENT_SET_NO": 999, "REV_AT_EPOCH": 95908, "BSTAR": 0.00071352705, "MEAN_MOTION_DOT": 1.118e-05, "MEAN_MOTION_DDOT": 0}, "tle": {"line1": "1 30913U 99025AZB 25346.05118029  .00001118  00000+0  71353-3 0  9999", "line2": "2 30913  98.7464  13.0219 0048492 183.1376 176.9495 14.04948678959081"}}, "geometry": {"type": "Point", "coordinates": [9.801336003291409, 32.1889167282919]}}]}